YOTSUBA-KULOVER         
1 65941U 98067XN  26056.41904739  .00144093  00000+0  91072-3 0  9993
2 65941  51.6226 120.6913 0005919   0.9597 359.1413 15.75617776 21567
BOTAN                   
1 65942U 98067XP  26056.41180294  .00947888  46051-3  15758-2 0  9995
2 65942  51.6130 114.5304 0009498  17.5648 342.5689 16.02344974 21643
E-KAGAKU-1              
1 65943U 98067XQ  26056.16769969  .00128224  00000+0  82234-3 0  9999
2 65943  51.6245 122.0281 0006201   8.8041 351.3066 15.75336584 21529
HRC MONOBLOCK CAMERA    
1 66052U 98067XR  26056.47641582  .00045077  00000+0  53351-3 0  9997
2 66052  51.6277 127.1055 0002998  42.7548 317.3678 15.60796546 20486
HTV-X1                  
1 66174U 25241A   26056.18628621  .00010179  00000+0  19739-3 0  9990
2 66174  51.6318 134.1640 0008356 131.0189 229.1523 15.48279367   516
SZ-21 MODULE            
1 66515U 25246C   26056.01670222  .00030552  00000+0  27555-3 0  9992
2 66515  41.4748 281.3118 0001473 289.6520  70.4162 15.67483837 16081
SHENZHOU-22             
1 66645U 25272A   26056.10668366  .00013576  00000+0  16634-3 0  9994
2 66645  41.4666 284.6914 0005593 191.4381 168.6331 15.60088863267647
SOYUZ-MS 28             
1 66664U 25275A   26056.44446630  .00009973  00000+0  19353-3 0  9990
2 66664  51.6319 132.8882 0008349 131.9822 228.1879 15.48284922554430
DUPLEX                  
1 66906U 98067XS  26056.44584309  .00031507  00000+0  46051-3 0  9997
2 66906  51.6291 130.6517 0001812  75.2996 284.8196 15.55338419 13226
ISS OBJECT XT           
1 66907U 98067XT  26056.46766338  .00113275  00000+0  10980-2 0  9998
2 66907  51.6263 127.7905 0003935  10.9224 349.1856 15.65501529 13269
ISS OBJECT XU           
1 66908U 98067XU  26056.46657883  .00113463  00000+0  10968-2 0  9998
2 66908  51.6256 127.7799 0004014  13.6188 346.4915 15.65570792 13265
SILVERSAT               
1 66909U 98067XV  26056.48675467  .00138005  00000+0  12223-2 0  9994
2 66909  51.6250 127.1648 0004851   9.1983 350.9101 15.67641974 13270
